OBJECT_NAME,OBJECT_ID,EPOCH,MEAN_MOTION,ECCENTRICITY,INCLINATION,RA_OF_ASC_NODE,ARG_OF_PERICENTER,MEAN_ANOMALY,EPHEMERIS_TYPE,CLASSIFICATION_TYPE,NORAD_CAT_ID,ELEMENT_SET_NO,REV_AT_EPOCH,BSTAR,MEAN_MOTION_DOT,MEAN_MOTION_DDOT
SKYSAT-C4,2016-058B,2026-07-12T14:11:16.089216,15.49378795,.0003375,96.9166,214.3113,121.6663,238.4919,0,U,41771,999,54940,.21392E-3,.11647E-3,0
SKYSAT-C5,2016-058C,2026-07-12T16:00:08.751744,15.33697336,.00022621,97.0459,233.1668,167.5326,192.5974,0,U,41772,999,54765,.14076646E-3,.4512E-4,0
SKYSAT-C2,2016-058D,2026-07-12T13:29:11.076000,15.42640053,.0001849,97.0160,214.7089,5.3443,354.7825,0,U,41773,999,54896,.18376E-3,.792E-4,0
SKYSAT-C3,2016-058E,2026-07-12T15:47:28.423968,15.53626037,.00024137,96.8992,223.5415,136.6705,223.4740,0,U,41774,999,55006,.24693351E-3,.15667E-3,0
ALSAT-1B,2016-059C,2026-07-13T11:22:23.028960,14.72294923,.0010189,97.7754,202.1031,134.6651,225.5389,0,U,41785,999,52444,.79091E-4,.453E-5,0
PATHFINDER 1,2016-059E,2026-07-13T10:51:39.627072,14.67692006,.0029739,97.8176,192.5445,121.0136,239.3996,0,U,41787,999,52356,.60544E-4,.3E-5,0
SCATSAT 1,2016-059H,2026-07-12T17:01:39.059904,14.79583421,.00550526,98.1179,257.7377,164.4981,195.7932,0,U,41790,999,10536,.9598631E-4,.68E-5,0
GOKTURK 1A,2016-073A,2026-07-13T12:18:17.826048,14.62791835,.0001432,98.1225,88.7710,79.1028,281.0335,0,U,41875,999,51267,.17971E-4,.45E-6,0
RESOURCESAT-2A,2016-074A,2026-07-13T11:08:26.772000,14.21609574,.00025,98.7527,267.7526,32.6694,327.4638,0,U,41877,999,49803,.21033E-3,.417E-5,0
CARTOSAT-2D,2017-008A,2026-07-13T12:05:42.822240,15.19280019,.0005826,97.4099,253.3159,144.1131,216.0496,0,U,41948,999,52157,.19358E-3,.4017E-4,0
SENTINEL-2B,2017-013A,2026-07-13T12:01:44.645952,14.30814939,.000122,98.5692,268.9034,90.3694,269.7628,0,U,42063,999,48840,.54836E-4,.1E-5,0
CARTOSAT-2E,2017-036C,2026-07-13T10:56:24.498240,15.19246491,.0003084,97.4267,253.8234,195.1223,164.9920,0,U,42767,999,50213,.13318E-3,.2739E-4,0
FORMOSAT-5,2017-049A,2026-07-13T11:10:41.117088,14.50907538,.0011449,98.2247,269.1909,9.1301,351.0100,0,U,42920,999,47048,.21715E-4,.42E-6,0
SENTINEL-5P,2017-064A,2026-07-13T10:08:35.523168,14.19523105,.0001107,98.7929,136.3681,93.2481,266.8822,0,U,42969,999,45328,.20003E-4,-.2E-7,0
SKYSAT-C11,2017-068A,2026-07-13T09:08:13.457184,15.59255142,.0001083,97.4370,344.3823,159.1653,200.9648,0,U,42987,999,48732,.24539E-3,.19174E-3,0
SKYSAT-C10,2017-068B,2026-07-13T08:53:02.224032,15.35093384,.0001416,97.4530,331.4844,109.9399,250.1996,0,U,42988,999,48637,.18783E-3,.6314E-4,0
SKYSAT-C9,2017-068C,2026-07-13T07:52:16.228704,15.42184723,.0008801,97.4449,332.6299,50.8893,309.3135,0,U,42989,999,48678,.18594E-3,.7895E-4,0
SKYSAT-C8,2017-068D,2026-07-13T08:47:33.287136,15.37468653,.0001233,97.4547,331.3811,101.5997,258.5386,0,U,42990,999,48633,.17137E-3,.6212E-4,0
SKYSAT-C7,2017-068E,2026-07-13T08:39:31.714272,15.37419702,.0005857,97.4558,332.3669,27.6632,332.4923,0,U,42991,999,48639,.16639E-3,.6022E-4,0
SKYSAT-C6,2017-068F,2026-07-13T08:48:06.244416,15.34150157,.0005135,97.4596,332.2346,93.7527,266.4303,0,U,42992,999,48633,.16725E-3,.5448E-4,0
CARTOSAT-2F,2018-004A,2026-07-13T11:43:18.363072,15.19265611,.0002591,97.4787,253.8642,139.0413,221.1016,0,U,43111,999,47132,.16377E-3,.3385E-4,0
GAOFEN-1 02,2018-031A,2026-07-13T12:37:14.789568,14.76470309,.0001592,98.0521,256.9774,298.0411,62.0637,0,U,43259,999,44658,.6344E-4,.39E-5,0
GAOFEN-1 03,2018-031B,2026-07-13T12:05:41.560800,14.76461137,.0002542,98.0505,256.8112,20.3804,339.7506,0,U,43260,999,44657,.57289E-4,.347E-5,0
GAOFEN-1 04,2018-031D,2026-07-13T13:08:18.378816,14.76472006,.0001383,98.0523,257.0487,57.2646,302.8696,0,U,43262,999,44657,.1525E-3,.101E-4,0
SENTINEL-3B,2018-039A,2026-07-13T04:59:20.825088,14.26735949,.0001093,98.6237,261.3652,119.4776,240.6513,0,U,43437,999,42783,.18273E-4,.1E-7,0
GAOFEN-5 01,2018-043A,2026-07-13T12:06:32.533344,14.60622600,.0002185,98.4589,166.6462,35.6690,324.4655,0,U,43461,999,43553,.35912E-4,.126E-5,0
GAOFEN-6,2018-048A,2026-07-13T12:03:02.956320,14.76383130,.0012154,98.0966,257.2001,86.5253,273.7346,0,U,43484,999,43727,.75276E-4,.471E-5,0
GAOFEN-11 01,2018-063A,2026-07-13T11:33:45.005760,15.56039194,.000293,97.1285,261.2980,206.1184,153.9924,0,U,43585,999,44443,.20433E-3,.14139E-3,0
ICESAT-2,2018-070A,2026-07-13T11:27:48.703392,15.28332160,.0005557,92.0094,298.0833,69.5266,290.6579,0,U,43613,999,43647,.20059E-3,.5536E-4,0
HYSIS,2018-096A,2026-07-13T11:13:24.648960,14.78666756,.0001847,97.9837,261.0079,84.5414,275.6008,0,U,43719,999,41130,.40524E-4,.245E-5,0
KAZSTSAT,2018-099AB,2026-07-13T07:34:16.231296,14.99953170,.0007459,97.4319,225.0657,348.5127,11.5925,0,U,43783,999,41522,.58934E-4,.676E-5,0
