SKYSAT-C4               
1 41771U 16058B   26193.59115844  .00011647  00000+0  21392-3 0  9996
2 41771  96.9166 214.3113 0003375 121.6663 238.4919 15.49378795549403
SKYSAT-C5               
1 41772U 16058C   26193.66676796  .00004512  00000+0  14077-3 0  9998
2 41772  97.0459 233.1668 0002262 167.5326 192.5974 15.33697336547658
SKYSAT-C2               
1 41773U 16058D   26193.56193375  .00007920  00000+0  18376-3 0  9997
2 41773  97.0160 214.7089 0001849   5.3443 354.7825 15.42640053548965
SKYSAT-C3               
1 41774U 16058E   26193.65796787  .00015667  00000+0  24693-3 0  9990
2 41774  96.8992 223.5415 0002413 136.6705 223.4740 15.53626037550064
ALSAT-1B                
1 41785U 16059C   26194.47387765  .00000453  00000+0  79091-4 0  9996
2 41785  97.7754 202.1031 0010189 134.6651 225.5389 14.72294923524446
PATHFINDER 1            
1 41787U 16059E   26194.45254198  .00000300  00000+0  60544-4 0  9993
2 41787  97.8176 192.5445 0029739 121.0136 239.3996 14.67692006523564
SCATSAT 1               
1 41790U 16059H   26193.70947986  .00000680  00000+0  95986-4 0  9997
2 41790  98.1179 257.7377 0055052 164.4981 195.7932 14.79583421105361
GOKTURK 1A              
1 41875U 16073A   26194.51270632  .00000045  00000+0  17971-4 0  9997
2 41875  98.1225  88.7710 0001432  79.1028 281.0335 14.62791835512671
RESOURCESAT-2A          
1 41877U 16074A   26194.46419875  .00000417  00000+0  21033-3 0  9994
2 41877  98.7527 267.7526 0002500  32.6694 327.4638 14.21609574498035
CARTOSAT-2D             
1 41948U 17008A   26194.50396785  .00004017  00000+0  19358-3 0  9997
2 41948  97.4099 253.3159 0005826 144.1131 216.0496 15.19280019521574
SENTINEL-2B             
1 42063U 17013A   26194.50121118  .00000100  00000+0  54836-4 0  9998
2 42063  98.5692 268.9034 0001220  90.3694 269.7628 14.30814939488400
CARTOSAT-2E             
1 42767U 17036C   26194.45583910  .00002739  00000+0  13318-3 0  9999
2 42767  97.4267 253.8234 0003084 195.1223 164.9920 15.19246491502132
FORMOSAT-5              
1 42920U 17049A   26194.46575367  .00000042  00000+0  21715-4 0  9998
2 42920  98.2247 269.1909 0011449   9.1301 351.0100 14.50907538470485
SENTINEL-5P             
1 42969U 17064A   26194.42263337 -.00000002  00000+0  20003-4 0  9991
2 42969  98.7929 136.3681 0001107  93.2481 266.8822 14.19523105453287
SKYSAT-C11              
1 42987U 17068A   26194.38071131  .00019174  00000+0  24539-3 0  9995
2 42987  97.4370 344.3823 0001083 159.1653 200.9648 15.59255142487323
SKYSAT-C10              
1 42988U 17068B   26194.37016463  .00006314  00000+0  18783-3 0  9998
2 42988  97.4530 331.4844 0001416 109.9399 250.1996 15.35093384486371
SKYSAT-C9               
1 42989U 17068C   26194.32796561  .00007895  00000+0  18594-3 0  9993
2 42989  97.4449 332.6299 0008801  50.8893 309.3135 15.42184723486789
SKYSAT-C8               
1 42990U 17068D   26194.36635749  .00006212  00000+0  17137-3 0  9993
2 42990  97.4547 331.3811 0001233 101.5997 258.5386 15.37468653486332
SKYSAT-C7               
1 42991U 17068E   26194.36078373  .00006022  00000+0  16639-3 0  9993
2 42991  97.4558 332.3669 0005857  27.6632 332.4923 15.37419702486393
SKYSAT-C6               
1 42992U 17068F   26194.36673894  .00005448  00000+0  16725-3 0  9990
2 42992  97.4596 332.2346 0005135  93.7527 266.4303 15.34150157486338
CARTOSAT-2F             
1 43111U 18004A   26194.48840698  .00003385  00000+0  16377-3 0  9997
2 43111  97.4787 253.8642 0002591 139.0413 221.1016 15.19265611471329
GAOFEN-1 02             
1 43259U 18031A   26194.52586562  .00000390  00000+0  63440-4 0  9999
2 43259  98.0521 256.9774 0001592 298.0411  62.0637 14.76470309446584
GAOFEN-1 03             
1 43260U 18031B   26194.50395325  .00000347  00000+0  57289-4 0  9990
2 43260  98.0505 256.8112 0002542  20.3804 339.7506 14.76461137446578
GAOFEN-1 04             
1 43262U 18031D   26194.54743494  .00001010  00000+0  15250-3 0  9999
2 43262  98.0523 257.0487 0001383  57.2646 302.8696 14.76472006446571
SENTINEL-3B             
1 43437U 18039A   26194.20787992  .00000001  00000+0  18273-4 0  9993
2 43437  98.6237 261.3652 0001093 119.4776 240.6513 14.26735949427836
GAOFEN-5 01             
1 43461U 18043A   26194.50454321  .00000126  00000+0  35912-4 0  9992
2 43461  98.4589 166.6462 0002185  35.6690 324.4655 14.60622600435535
GAOFEN-6                
1 43484U 18048A   26194.50211755  .00000471  00000+0  75276-4 0  9994
2 43484  98.0966 257.2001 0012154  86.5253 273.7346 14.76383130437273
GAOFEN-11 01            
1 43585U 18063A   26194.48177090  .00014139  00000+0  20433-3 0  9993
2 43585  97.1285 261.2980 0002930 206.1184 153.9924 15.56039194444438
ICESAT-2                
1 43613U 18070A   26194.47764703  .00005536  00000+0  20059-3 0  9990
2 43613  92.0094 298.0833 0005557  69.5266 290.6579 15.28332160436475
HYSIS                   
1 43719U 18096A   26194.46764640  .00000245  00000+0  40524-4 0  9996
2 43719  97.9837 261.0079 0001847  84.5414 275.6008 14.78666756411303
KAZSTSAT                
1 43783U 18099AB  26194.31546564  .00000676  00000+0  58934-4 0  9999
2 43783  97.4319 225.0657 0007459 348.5127  11.5925 14.99953170415227
